CCSDS_OMM_VERS = 2.0
CREATION_DATE  = 
ORIGINATOR     = 

OBJECT_NAME    = 2026-052D
OBJECT_ID      = 2026-052D
CENTER_NAME    = EARTH
REF_FRAME      = TEME
TIME_SYSTEM    = UTC
MEAN_ELEMENT_THEORY = SGP/SGP4

EPOCH          = 2026-03-17T14:37:08.882976
MEAN_MOTION    = 15.10256105
ECCENTRICITY   = .00104009
INCLINATION    = 97.5378
RA_OF_ASC_NODE = 152.8372
ARG_OF_PERICENTER = 261.1905
MEAN_ANOMALY   = 98.8147

EPHEMERIS_TYPE = 0
CLASSIFICATION_TYPE = U
NORAD_CAT_ID   = 68201
ELEMENT_SET_NO = 999
REV_AT_EPOCH   = 22
BSTAR          = .62118757E-4
MEAN_MOTION_DOT = .953E-5
MEAN_MOTION_DDOT = 0

CCSDS_OMM_VERS = 2.0
CREATION_DATE  = 
ORIGINATOR     = 

OBJECT_NAME    = 2026-052E
OBJECT_ID      = 2026-052E
CENTER_NAME    = EARTH
REF_FRAME      = TEME
TIME_SYSTEM    = UTC
MEAN_ELEMENT_THEORY = SGP/SGP4

EPOCH          = 2026-03-17T14:37:08.323968
MEAN_MOTION    = 15.10260560
ECCENTRICITY   = .00102732
INCLINATION    = 97.5390
RA_OF_ASC_NODE = 152.8376
ARG_OF_PERICENTER = 265.2046
MEAN_ANOMALY   = 94.8011

EPHEMERIS_TYPE = 0
CLASSIFICATION_TYPE = U
NORAD_CAT_ID   = 68202
ELEMENT_SET_NO = 999
REV_AT_EPOCH   = 22
BSTAR          = .62011667E-4
MEAN_MOTION_DOT = .952E-5
MEAN_MOTION_DDOT = 0

CCSDS_OMM_VERS = 2.0
CREATION_DATE  = 
ORIGINATOR     = 

OBJECT_NAME    = 2026-052F
OBJECT_ID      = 2026-052F
CENTER_NAME    = EARTH
REF_FRAME      = TEME
TIME_SYSTEM    = UTC
MEAN_ELEMENT_THEORY = SGP/SGP4

EPOCH          = 2026-03-17T14:36:48.520224
MEAN_MOTION    = 15.10511763
ECCENTRICITY   = .00094663
INCLINATION    = 97.5380
RA_OF_ASC_NODE = 152.8448
ARG_OF_PERICENTER = 257.5043
MEAN_ANOMALY   = 102.5128

EPHEMERIS_TYPE = 0
CLASSIFICATION_TYPE = U
NORAD_CAT_ID   = 68203
ELEMENT_SET_NO = 999
REV_AT_EPOCH   = 22
BSTAR          = .61201304E-4
MEAN_MOTION_DOT = .945E-5
MEAN_MOTION_DDOT = 0

CCSDS_OMM_VERS = 2.0
CREATION_DATE  = 
ORIGINATOR     = 

OBJECT_NAME    = 2026-052G
OBJECT_ID      = 2026-052G
CENTER_NAME    = EARTH
REF_FRAME      = TEME
TIME_SYSTEM    = UTC
MEAN_ELEMENT_THEORY = SGP/SGP4

EPOCH          = 2026-03-17T14:36:44.481888
MEAN_MOTION    = 15.10561505
ECCENTRICITY   = .0009101
INCLINATION    = 97.5388
RA_OF_ASC_NODE = 152.8381
ARG_OF_PERICENTER = 260.6998
MEAN_ANOMALY   = 99.3203

EPHEMERIS_TYPE = 0
CLASSIFICATION_TYPE = U
NORAD_CAT_ID   = 68204
ELEMENT_SET_NO = 999
REV_AT_EPOCH   = 22
BSTAR          = .6100359E-4
MEAN_MOTION_DOT = .943E-5
MEAN_MOTION_DDOT = 0

CCSDS_OMM_VERS = 2.0
CREATION_DATE  = 
ORIGINATOR     = 

OBJECT_NAME    = KZ-11 R/B
OBJECT_ID      = 2026-052H
CENTER_NAME    = EARTH
REF_FRAME      = TEME
TIME_SYSTEM    = UTC
MEAN_ELEMENT_THEORY = SGP/SGP4

EPOCH          = 2026-03-17T13:57:43.423776
MEAN_MOTION    = 14.66538175
ECCENTRICITY   = .05498503
INCLINATION    = 97.3426
RA_OF_ASC_NODE = 153.0194
ARG_OF_PERICENTER = 8.5041
MEAN_ANOMALY   = 352.5027

EPHEMERIS_TYPE = 0
CLASSIFICATION_TYPE = U
NORAD_CAT_ID   = 68205
ELEMENT_SET_NO = 999
REV_AT_EPOCH   = 21
BSTAR          = .17183889E-3
MEAN_MOTION_DOT = .11258E-3
MEAN_MOTION_DDOT = .1641944E-5

