2026-052D               
1 68201U 26052D   26076.60913059  .00000953  00000+0  62119-4 0  9995
2 68201  97.5378 152.8372 0010400 261.1905  98.8147 15.10256105   222
2026-052E               
1 68202U 26052E   26076.60912412  .00000952  00000+0  62012-4 0  9999
2 68202  97.5390 152.8376 0010273 265.2046  94.8011 15.10260560   226
2026-052F               
1 68203U 26052F   26076.60889491  .00000945  00000+0  61201-4 0  9991
2 68203  97.5380 152.8448 0009466 257.5043 102.5128 15.10511763   229
2026-052G               
1 68204U 26052G   26076.60884817  .00000943  00000+0  61004-4 0  9998
2 68204  97.5388 152.8381 0009101 260.6998  99.3203 15.10561505   220
KZ-11 R/B               
1 68205U 26052H   26076.58175259  .00011258  16419-5  17184-3 0  9996
2 68205  97.3426 153.0194 0549850   8.5041 352.5027 14.66538175   219
